#dP2024  8  9  0  0  0.00000000      96 __u+U IGS20 FIT  IAC
## 2326 432000.00000000   900.00000000 60531 0.0000000000000
+  132   C01C02C03C04C05C06C07C08C09C10C11C12C13C14C16C19C20
+        C21C22C23C24C25C26C27C28C29C30C32C33C34C35C36C37C38
+        C39C40C41C42C43C44C45C59C60C62E02E03E04E05E06E07E08
+        E09E10E11E12E13E14E15E18E19E21E24E25E26E27E29E30E31
+        E33E34E36G01G02G03G04G05G06G07G08G09G10G11G12G13G14
+        G15G16G17G18G19G20G21G22G23G24G25G26G27G28G29G30G31
+        G32J02J03J04J07R01R02R03R04R05R06R07R08R09R10R11R12
+        R14R15R16R17R18R19R20R21R22R23R24R25R26  0  0  0  0
++        17 17 17 17 16  9 10  9  9 10  9  9  9  9  9  7  7
++         7  7  7  7  7  7  7  7  7  7  7  7  6  7  7  7  8
++         8  8  7  7  7  7  8 18 17 17  5  4  4  4  5  4  4
++         4  4  4  5  4  4  4  4  4  4  4  4  4  4  4  4  4
++         4  5  5  6  4  4  4  4  4  4  4  4  4  4  4  0  4
++         4  4  4  4  4  4  4  4  4  4  4  4  4  3  4  4  4
++         4 10 11 11 17  7  6  6  6  6 15  6  6  6  0  6  6
++         6  6  6  6  6  7  7  6  6 15  6  8  8  0  0  0  0
%c M  cc GPS ccc cccc cccc cccc cccc ccccc ccccc ccccc ccccc
%c cc cc ccc ccc cccc cccc cccc cccc ccccc ccccc ccccc ccccc
%f  0.0000000  0.000000000  0.00000000000  0.000000000000000
%f  0.0000000  0.000000000  0.00000000000  0.000000000000000
%i    0    0    0    0      0      0      0      0         0
%i    0    0    0    0      0      0      0      0         0
/* INFORMATION & ANALYSIS CENTER (IAC)            RAPID DATA
/* S/V CLOCKS ARE ALIGNED TO GNSS TIME                      
/* G:C1WC2W R:C1PC2P E:C1XC5X C:C2IC6I J:C1CC2S             
/* PCV:IGS20_2317 OL/AL:FES2004  NONE     YN ORB:CoN CLK:CoN
*  2024 08 09  0 30  0.00000000
PC01 -34341.566165  24466.789102    691.190502    913.647798
PC02   4332.829322  41896.503615  -1020.515434    917.845053
PC03 -14818.157569  39441.799902    203.175541    698.832459
PC04 -39602.164982  14430.654472   1205.861349   -710.245754
PC05  21847.082992  36036.588931  -1199.196544   -469.783757
PC06  -6176.542364  23993.470567 -34013.045114    664.702265
PC07 -16970.707130  35538.666013  14830.846610   -477.623503
PC08  -2172.867936  39442.854740  15043.529649   -404.168500
PC09   5395.847312  27258.730574 -31015.317176   -152.543600
PC10 -10047.107730  35477.266919  20285.303710   -116.994731
PC11  19245.034400 -10680.253009 -17100.197044    703.301763
PC12  27906.568579    553.374460   -209.067498   -265.813133
PC13   2143.115715  41275.327420   9233.632111    437.945626
PC14  16848.929280 -21557.895146  -5650.340967    916.625060
PC16  -7915.988863  22616.740171 -34355.082797   -715.579385
PC19 -11723.984095  25048.533426  -3594.272853   -924.168759
PC20 -19074.657914  15941.709859  12644.260635   -780.085766
PC21  15562.848190   3822.162327 -22845.312481   -945.630473
PC22   2855.739319  20355.942072 -18874.072713     86.449516
PC23 -11309.028048 -25203.996911   3944.156631   -811.437213
PC24  16411.054680  -3787.951596  22246.560023    861.151052
PC25   3202.668526 -20512.880512  18630.021666    473.500152
PC26  19895.821443  14741.135243  12887.426271   -331.587495
PC27 -25880.153288  -6125.094417  -8475.312713    352.213370
PC28 -13314.957778 -14153.244871 -20021.662543    271.917707
PC29 -10315.588689  15180.098426  21014.140623    319.273507
PC30 -26044.419172   6346.242451   7772.418301   -159.126079
PC32 -15519.781823  -3886.082121  22867.150745   -696.719418
PC33  11633.169528 -25136.623191   3488.516124   -965.526073
PC34  25236.905022  -7408.420717  -9321.766428    495.022647
PC35  13319.378323  13882.690222  20189.009809    292.112117
PC36  -3355.415337  20675.273082 -18418.927325    156.188041
PC37 -19556.202071 -15120.943934 -12908.099300   -911.122413
PC38  -8139.401041  34593.602643  22852.862680    172.144355
PC39 -14761.830435  19899.474160 -34075.824744     -9.473663
PC40 -24655.661551  30863.881597  14304.764486    -84.610584
PC41  -2220.517194 -20977.820583  18323.568208   -928.409703
PC42  19272.864900 -14511.240549 -14022.614639   -461.064023
PC43  11356.652732 -15058.420323 -20574.870586     81.675322
PC44  26029.943064   5226.687407   8543.505716    557.606759
PC45  10952.157996  25309.022234  -4355.321948   -114.639656
PC59 -32300.709380  27081.425997    -65.853450      0.011192
PC60   7313.638795  41531.327999    407.831324     -0.290125
PC62 -39596.649827  14413.028641   -425.361431     -0.889087
PE02  16861.042751    426.655100  24326.308021    149.839166
PE03  27075.328484  -4309.073631 -11187.876076   -132.403539
PE04 -22929.981231  17000.099982  -7817.257546     -3.594091
PE05  15161.768727  10595.909226 -23109.811652   4773.411650
PE06 -15214.375443  19730.565742 -15996.905223    -13.412441
PE07   6073.187945 -19473.402181  21456.592302   -135.551097
PE08  23496.965789 -16589.093901   7024.906249   -316.110658
PE09  -6191.439941  19362.595088 -21510.801216   -545.671527
PE10  -4852.018153  15791.728665  24552.847165   -646.980043
PE11   5995.220236  20349.572692  20626.601656   2106.536157
PE12 -13890.240001   9515.284601  24338.671629  -1158.790983
PE13  -5459.355465 -20138.547383 -20996.022955    -23.667166
PE14   -384.905605 -20842.603415 -22341.882706    156.415140
PE15  14377.066476  -8997.045146 -24258.479346   -119.767770
PE18  16728.375507   9958.610642  18801.748540    411.027916
PE19 -26516.134192   2708.486481  12874.099564    425.741081
PE21 -10900.629639 -20685.871771 -18146.617472   -610.018964
PE24  -1905.390811  29534.251488    895.535751   -919.957936
PE25  10686.875207  21038.182419  17881.199166      7.795960
PE26 -22020.690549 -19133.188744  -4991.041277    536.201259
PE27   1692.093621 -29529.233147  -1080.499058   -421.467409
PE29 -15603.296595 -10480.190007  22862.245342    -21.483000
PE30  13226.335125 -20793.745296  16387.702647   -592.058567
PE31 -13112.792117  20866.917912 -16382.782736    -31.937826
PE33 -25551.474888  -7618.877179  12839.785829     14.459624
PE34  25486.871543   7200.288371 -13243.358983   -127.368011
PE36  21732.633448  19316.552930   5541.022979   -266.473781
PG01   7820.460189 -23141.977348   9635.017624    225.279730
PG02 -22430.722251 -13978.867716  -3524.747885   -382.778748
PG03 -12401.552122 -13200.849833  19301.910060    492.426626
PG04 -18802.689575  -4721.699708  18232.479522    420.404328
PG05   5759.535517  24787.118302  -7654.671072   -182.565621
PG06  -9391.474171  11300.269562  22192.862244    110.488234
PG07 -23159.423390  -3879.916422 -12313.411471    -54.901163
PG08  -9170.942972 -12512.142655 -21684.909449    308.171805
PG09 -23940.899363   5718.445228   9960.859651    306.429968
PG10  10493.531814 -18891.211627 -15004.303744    -88.540140
PG11   5095.524170  18683.897622  18232.722334   -718.571964
PG12  10660.019415  16651.783369  17477.704787   -528.870409
PG13      0.000000      0.000000      0.000000 999999.999999
PG14 -13174.009966  15239.913430 -17154.528236    468.043653
PG15  10850.748691  11805.460713 -21695.411505    190.436524
PG16   -377.039871 -25946.377032  -4727.260521   -213.815660
PG17 -22121.748466  14133.067396   5013.237543    659.295540
PG18  22549.330953   3280.323683 -13807.281896   -644.506638
PG19 -16633.376384  16146.960176  12414.273122    521.966508
PG20   1347.628809  26351.603605   3745.530807    371.879877
PG21 -19581.937075 -16368.350609  -8645.204713    104.052966
PG22 -10003.196593  22211.809242 -10514.479919    -49.138921
PG23  14335.094273  -6326.279614 -21384.208466    292.953000
PG24  20928.810049  15540.150414  -6557.493196   -485.798899
PG25  15049.244645   4671.190022  21074.252873    499.168700
PG26   5198.800856 -24261.405080   8787.343710    104.272843
PG27   2702.643599 -17454.581411 -19996.912920    -32.738849
PG28  11547.416228 -10623.343469  21420.309525   -364.996541
PG29  23287.393543   -826.574990  12816.412651   -585.140707
PG30 -17212.277608   6077.259373 -19226.847446   -343.354575
PG31     73.731333 -16927.897919  20149.389485   -226.051952
PG32  20267.229685 -16003.200488   5955.503772   -607.131887
PJ02 -24146.803056  30352.464316 -11794.619558     -0.734898
PJ03 -27897.792549  22166.232884  27613.521006     -1.706636
PJ04 -30687.166501  29123.531525   6478.454318     22.591346
PJ07 -25383.180780  33665.719020    -41.554639      0.006758
PR01  16279.313670  -6163.999620 -18655.124595     93.923781
PR02  17903.521115 -17608.974977  -4233.756664    -24.039396
PR03   9109.764674 -20027.894024  12895.355215    105.285794
PR04  -3985.849533 -11286.774873  22547.300877    249.050533
PR05 -15262.453960   3314.548705  20181.947240    135.798597
PR06 -16885.008756  18897.614327   2975.887241   -175.337255
PR07  -8794.549113  19910.651918 -13306.948205     88.407784
PR08   4293.691437  11169.606600 -22476.201376     -6.306264
PR09  -7452.954451  10694.429521 -21887.092073    202.326481
PR10      0.000000      0.000000      0.000000 999999.999999
PR11  10645.458671  22754.848035   4378.396084     15.494791
PR12  13316.972609   8347.364010  20124.556068     43.412709
PR14  -2630.319580 -22747.099882  11282.592526     26.800990
PR15 -11102.806000 -22174.737302  -5971.183766     77.048480
PR16 -13243.723358  -8592.006806 -20033.218227     28.087493
PR17    616.816463 -10672.125026 -23152.314199    111.854600
PR18 -16195.119291 -10861.835266 -16453.611078    156.085400
PR19 -24278.796456  -7136.354259  -3150.367554   -286.878007
PR20 -18939.986422   3227.318172  16801.467526   -117.379128
PR21  -1200.279941  10496.175703  23215.657198   -124.403887
PR22  16796.138607  11347.515677  15506.918815     73.241010
PR23  24965.243606   5251.681942     30.217478   -129.229948
PR24  18445.932179  -4676.996718 -16986.200692    -67.047721
PR25   -643.229053  11035.552237  22993.242279    -99.870807
PR26   3263.742702  12195.493535 -22144.311368      8.645538
EOF
